{"type": "FeatureCollection", "features": [ {"type": "Feature", "properties": {"norad_id": 52912, "name": "GAOFEN-12 03", "group": "resource", "lat": -29.324486788867958, "lon": 62.46499340408057, "alt_km": 637.6264198624422, "timestamp": "2025-12-25T20:42:38.345096+00:00", "meta": {"OBJECT_NAME": "GAOFEN-12 03", "OBJECT_ID": "2022-069A", "EPOCH": "2025-12-25T06:46:57.565344", "MEAN_MOTION": 14.79638312, "ECCENTRICITY": 0.00018305, "INCLINATION": 97.8477, "RA_OF_ASC_NODE": 246.3418, "ARG_OF_PERICENTER": 47.9751, "MEAN_ANOMALY": 312.1616, "EPHEMERIS_TYPE": 0, "CLASSIFICATION_TYPE": "U", "NORAD_CAT_ID": 52912, "ELEMENT_SET_NO": 999, "REV_AT_EPOCH": 18889, "BSTAR": 0.00016175951, "MEAN_MOTION_DOT": 1.162e-05, "MEAN_MOTION_DDOT": 0}, "tle": {"line1": "1 52912U 22069A   25359.28261071  .00001162  00000+0  16176-3 0  9992", "line2": "2 52912  97.8477 246.3418 0001830  47.9751 312.1616 14.79638312188894"}}, "geometry": {"type": "Point", "coordinates": [62.46499340408057, -29.324486788867958]}}, {"type": "Feature", "properties": {"norad_id": 54754, "name": "SWOT", "group": "resource", "lat": 40.802444691118545, "lon": -79.78635967753168, "alt_km": 889.5445880148127, "timestamp": "2025-12-25T20:42:38.345106+00:00", "meta": {"OBJECT_NAME": "SWOT", "OBJECT_ID": "2022-173A", "EPOCH": "2025-12-25T05:04:35.932800", "MEAN_MOTION": 14.00168708, "ECCENTRICITY": 4.107e-05, "INCLINATION": 77.6108, "RA_OF_ASC_NODE": 270.1547, "ARG_OF_PERICENTER": 82.0416, "MEAN_ANOMALY": 278.0782, "EPHEMERIS_TYPE": 0, "CLASSIFICATION_TYPE": "U", "NORAD_CAT_ID": 54754, "ELEMENT_SET_NO": 999, "REV_AT_EPOCH": 15480, "BSTAR": 7.7390887e-05, "MEAN_MOTION_DOT": 1.12e-06, "MEAN_MOTION_DDOT": 0}, "tle": {"line1": "1 54754U 22173A   25359.21152700  .00000112  00000+0  77391-4 0  9996", "line2": "2 54754  77.6108 270.1547 0000410  82.0416 278.0782 14.00168708154805"}}, "geometry": {"type": "Point", "coordinates": [-79.78635967753168, 40.802444691118545]}}, {"type": "Feature", "properties": {"norad_id": 57654, "name": "GAOFEN-12 04", "group": "resource", "lat": 23.27743756572595, "lon": -88.00877860892659, "alt_km": 629.2371069229448, "timestamp": "2025-12-25T20:42:38.345116+00:00", "meta": {"OBJECT_NAME": "GAOFEN-12 04", "OBJECT_ID": "2023-123A", "EPOCH": "2025-12-25T07:37:17.520960", "MEAN_MOTION": 14.797353, "ECCENTRICITY": 0.0001207, "INCLINATION": 97.9128, "RA_OF_ASC_NODE": 274.8844, "ARG_OF_PERICENTER": 79.8341, "MEAN_ANOMALY": 280.3007, "EPHEMERIS_TYPE": 0, "CLASSIFICATION_TYPE": "U", "NORAD_CAT_ID": 57654, "ELEMENT_SET_NO": 999, "REV_AT_EPOCH": 12691, "BSTAR": 0.0001951322, "MEAN_MOTION_DOT": 1.415e-05, "MEAN_MOTION_DDOT": 0}, "tle": {"line1": "1 57654U 23123A   25359.31756390  .00001415  00000+0  19513-3 0  9998", "line2": "2 57654  97.9128 274.8844 0001207  79.8341 280.3007 14.79735300126912"}}, "geometry": {"type": "Point", "coordinates": [-88.00877860892659, 23.27743756572595]}}, {"type": "Feature", "properties": {"norad_id": 59065, "name": "PARS 1", "group": "resource", "lat": 74.47859775422951, "lon": -57.0975604955983, "alt_km": 429.6701303118898, "timestamp": "2025-12-25T20:42:38.345126+00:00", "meta": {"OBJECT_NAME": "PARS 1", "OBJECT_ID": "2024-039Q", "EPOCH": "2025-12-25T06:21:27.804960", "MEAN_MOTION": 15.41256236, "ECCENTRICITY": 0.00115305, "INCLINATION": 97.4655, "RA_OF_ASC_NODE": 330.4662, "ARG_OF_PERICENTER": 33.8989, "MEAN_ANOMALY": 326.2992, "EPHEMERIS_TYPE": 0, "CLASSIFICATION_TYPE": "U", "NORAD_CAT_ID": 59065, "ELEMENT_SET_NO": 999, "REV_AT_EPOCH": 10181, "BSTAR": 0.00031592173, "MEAN_MOTION_DOT": 0.00013086, "MEAN_MOTION_DDOT": 0}, "tle": {"line1": "1 59065U 24039Q   25359.26490515  .00013086  00000+0  31592-3 0  9999", "line2": "2 59065  97.4655 330.4662 0011530  33.8989 326.2992 15.41256236101816"}}, "geometry": {"type": "Point", "coordinates": [-57.0975604955983, 74.47859775422951]}}, {"type": "Feature", "properties": {"norad_id": 59371, "name": "RESURS-P 4", "group": "resource", "lat": 25.211049388510133, "lon": 129.36501889413057, "alt_km": 468.43648279800345, "timestamp": "2025-12-25T20:42:38.345137+00:00", "meta": {"OBJECT_NAME": "RESURS-P 4", "OBJECT_ID": "2024-061A", "EPOCH": "2025-12-25T07:29:58.602912", "MEAN_MOTION": 15.32195677, "ECCENTRICITY": 7.989e-05, "INCLINATION": 97.2564, "RA_OF_ASC_NODE": 305.3864, "ARG_OF_PERICENTER": 82.8222, "MEAN_ANOMALY": 277.3111, "EPHEMERIS_TYPE": 0, "CLASSIFICATION_TYPE": "U", "NORAD_CAT_ID": 59371, "ELEMENT_SET_NO": 999, "REV_AT_EPOCH": 9713, "BSTAR": 0.00013744673, "MEAN_MOTION_DOT": 4.196e-05, "MEAN_MOTION_DDOT": 0}, "tle": {"line1": "1 59371U 24061A   25359.31248383  .00004196  00000+0  13745-3 0  9996", "line2": "2 59371  97.2564 305.3864 0000798  82.8222 277.3111 15.32195677 97135"}}, "geometry": {"type": "Point", "coordinates": [129.36501889413057, 25.211049388510133]}}, {"type": "Feature", "properties": {"norad_id": 59625, "name": "LEGION 1", "group": "resource", "lat": 3.9738580828257835, "lon": 73.86347209424474, "alt_km": 519.3879777359816, "timestamp": "2025-12-25T20:42:38.345147+00:00", "meta": {"OBJECT_NAME": "LEGION 1", "OBJECT_ID": "2024-081A", "EPOCH": "2025-12-25T04:51:29.263392", "MEAN_MOTION": 15.16600252, "ECCENTRICITY": 0.00035998, "INCLINATION": 97.5194, "RA_OF_ASC_NODE": 73.7344, "ARG_OF_PERICENTER": 259.1642, "MEAN_ANOMALY": 100.9186, "EPHEMERIS_TYPE": 0, "CLASSIFICATION_TYPE": "U", "NORAD_CAT_ID": 59625, "ELEMENT_SET_NO": 999, "REV_AT_EPOCH": 9116, "BSTAR": 0.00026598066, "MEAN_MOTION_DOT": 5.13e-05, "MEAN_MOTION_DDOT": 0}, "tle": {"line1": "1 59625U 24081A   25359.20242203  .00005130  00000+0  26598-3 0  9992", "line2": "2 59625  97.5194  73.7344 0003599 259.1642 100.9186 15.16600252 91167"}}, "geometry": {"type": "Point", "coordinates": [73.86347209424474, 3.9738580828257835]}}, {"type": "Feature", "properties": {"norad_id": 59626, "name": "LEGION 2", "group": "resource", "lat": -4.4904771127266185, "lon": -106.11707161375625, "alt_km": 517.3155008968488, "timestamp": "2025-12-25T20:42:38.345157+00:00", "meta": {"OBJECT_NAME": "LEGION 2", "OBJECT_ID": "2024-081B", "EPOCH": "2025-12-25T05:38:53.935008", "MEAN_MOTION": 15.16613356, "ECCENTRICITY": 0.00057918, "INCLINATION": 97.5197, "RA_OF_ASC_NODE": 73.8551, "ARG_OF_PERICENTER": 239.7454, "MEAN_ANOMALY": 120.3206, "EPHEMERIS_TYPE": 0, "CLASSIFICATION_TYPE": "U", "NORAD_CAT_ID": 59626, "ELEMENT_SET_NO": 999, "REV_AT_EPOCH": 9117, "BSTAR": 0.00030271434, "MEAN_MOTION_DOT": 5.851e-05, "MEAN_MOTION_DDOT": 0}, "tle": {"line1": "1 59626U 24081B   25359.23534647  .00005851  00000+0  30271-3 0  9995", "line2": "2 59626  97.5197  73.8551 0005791 239.7454 120.3206 15.16613356 91172"}}, "geometry": {"type": "Point", "coordinates": [-106.11707161375625, -4.4904771127266185]}}, {"type": "Feature", "properties": {"norad_id": 60182, "name": "ALOS-4 (DAICHI-4)", "group": "resource", "lat": -70.93265926501313, "lon": -109.23511680206924, "alt_km": 639.1482327629628, "timestamp": "2025-12-25T20:42:38.345167+00:00", "meta": {"OBJECT_NAME": "ALOS-4 (DAICHI-4)", "OBJECT_ID": "2024-123A", "EPOCH": "2025-12-25T06:35:13.242048", "MEAN_MOTION": 14.79469578, "ECCENTRICITY": 0.00013746, "INCLINATION": 97.9222, "RA_OF_ASC_NODE": 93.9428, "ARG_OF_PERICENTER": 101.0018, "MEAN_ANOMALY": 259.1348, "EPHEMERIS_TYPE": 0, "CLASSIFICATION_TYPE": "U", "NORAD_CAT_ID": 60182, "ELEMENT_SET_NO": 999, "REV_AT_EPOCH": 8016, "BSTAR": 0.00017487869, "MEAN_MOTION_DOT": 1.255e-05, "MEAN_MOTION_DDOT": 0}, "tle": {"line1": "1 60182U 24123A   25359.27445882  .00001255  00000+0  17488-3 0  9996", "line2": "2 60182  97.9222  93.9428 0001374 101.0018 259.1348 14.79469578 80168"}}, "geometry": {"type": "Point", "coordinates": [-109.23511680206924, -70.93265926501313]}}, {"type": "Feature", "properties": {"norad_id": 60452, "name": "LEGION 3", "group": "resource", "lat": -27.91334607590906, "lon": -152.24147733501434, "alt_km": 514.0428493240424, "timestamp": "2025-12-25T20:42:38.345177+00:00", "meta": {"OBJECT_NAME": "LEGION 3", "OBJECT_ID": "2024-146A", "EPOCH": "2025-12-25T01:54:49.497120", "MEAN_MOTION": 15.15883235, "ECCENTRICITY": 0.0015746, "INCLINATION": 45.0002, "RA_OF_ASC_NODE": 243.9747, "ARG_OF_PERICENTER": 264.4284, "MEAN_ANOMALY": 95.4798, "EPHEMERIS_TYPE": 0, "CLASSIFICATION_TYPE": "U", "NORAD_CAT_ID": 60452, "ELEMENT_SET_NO": 999, "REV_AT_EPOCH": 7560, "BSTAR": 0.00029588328, "MEAN_MOTION_DOT": 5.515e-05, "MEAN_MOTION_DDOT": 0}, "tle": {"line1": "1 60452U 24146A   25359.07973955  .00005515  00000+0  29588-3 0  9993", "line2": "2 60452  45.0002 243.9747 0015746 264.4284  95.4798 15.15883235 75600"}}, "geometry": {"type": "Point", "coordinates": [-152.24147733501434, -27.91334607590906]}}, {"type": "Feature", "properties": {"norad_id": 60453, "name": "LEGION 4", "group": "resource", "lat": -28.254456387722296, "lon": -60.92003446086589, "alt_km": 518.6247492292387, "timestamp": "2025-12-25T20:42:38.345188+00:00", "meta": {"OBJECT_NAME": "LEGION 4", "OBJECT_ID": "2024-146B", "EPOCH": "2025-12-25T06:39:41.252256", "MEAN_MOTION": 15.15957315, "ECCENTRICITY": 0.00080906, "INCLINATION": 45.0397, "RA_OF_ASC_NODE": 334.7014, "ARG_OF_PERICENTER": 20.948, "MEAN_ANOMALY": 339.1729, "EPHEMERIS_TYPE": 0, "CLASSIFICATION_TYPE": "U", "NORAD_CAT_ID": 60453, "ELEMENT_SET_NO": 999, "REV_AT_EPOCH": 7448, "BSTAR": 0.00033889002, "MEAN_MOTION_DOT": 6.356e-05, "MEAN_MOTION_DDOT": 0}, "tle": {"line1": "1 60453U 24146B   25359.27756079  .00006356  00000+0  33889-3 0  9995", "line2": "2 60453  45.0397 334.7014 0008090  20.9480 339.1729 15.15957315 74489"}}, "geometry": {"type": "Point", "coordinates": [-60.92003446086589, -28.254456387722296]}}]}